{"type": "FeatureCollection", "features": [ {"type": "Feature", "properties": {"norad_id": 31734, "name": "FENGYUN 1C DEB", "group": "fengyun-1c-debris", "lat": 68.3053025200305, "lon": -41.736990855247825, "alt_km": 758.2798035566784, "timestamp": "2025-12-14T05:42:18.744314+00:00", "meta": {"OBJECT_NAME": "FENGYUN 1C DEB", "OBJECT_ID": "1999-025CEH", "EPOCH": "2025-12-10T17:21:48.423168", "MEAN_MOTION": 14.29008825, "ECCENTRICITY": 0.01040397, "INCLINATION": 98.4988, "RA_OF_ASC_NODE": 336.9135, "ARG_OF_PERICENTER": 13.5368, "MEAN_ANOMALY": 346.8567, "EPHEMERIS_TYPE": 0, "CLASSIFICATION_TYPE": "U", "NORAD_CAT_ID": 31734, "ELEMENT_SET_NO": 999, "REV_AT_EPOCH": 96422, "BSTAR": 0.0007502923, "MEAN_MOTION_DOT": 1.97e-05, "MEAN_MOTION_DDOT": 0}, "tle": {"line1": "1 31734U 99025CEH 25344.72347712  .00001970  00000+0  75029-3 0  9996", "line2": "2 31734  98.4988 336.9135 0104039  13.5368 346.8567 14.29008825964220"}}, "geometry": {"type": "Point", "coordinates": [-41.736990855247825, 68.3053025200305]}}, {"type": "Feature", "properties": {"norad_id": 31735, "name": "FENGYUN 1C DEB", "group": "fengyun-1c-debris", "lat": 48.31594787527638, "lon": 81.81799952628204, "alt_km": 772.1250182940048, "timestamp": "2025-12-14T05:42:18.744324+00:00", "meta": {"OBJECT_NAME": "FENGYUN 1C DEB", "OBJECT_ID": "1999-025CEJ", "EPOCH": "2025-12-13T12:49:52.166784", "MEAN_MOTION": 14.42548153, "ECCENTRICITY": 0.0058798, "INCLINATION": 98.5795, "RA_OF_ASC_NODE": 90.8718, "ARG_OF_PERICENTER": 281.9329, "MEAN_ANOMALY": 77.5272, "EPHEMERIS_TYPE": 0, "CLASSIFICATION_TYPE": "U", "NORAD_CAT_ID": 31735, "ELEMENT_SET_NO": 999, "REV_AT_EPOCH": 96676, "BSTAR": 0.00066683647, "MEAN_MOTION_DOT": 2.212e-05, "MEAN_MOTION_DDOT": 0}, "tle": {"line1": "1 31735U 99025CEJ 25347.53463156  .00002212  00000+0  66684-3 0  9997", "line2": "2 31735  98.5795  90.8718 0058798 281.9329  77.5272 14.42548153966769"}}, "geometry": {"type": "Point", "coordinates": [81.81799952628204, 48.31594787527638]}}, {"type": "Feature", "properties": {"norad_id": 31736, "name": "FENGYUN 1C DEB", "group": "fengyun-1c-debris", "lat": -81.04294925729035, "lon": 65.80432436701477, "alt_km": 845.9268969512177, "timestamp": "2025-12-14T05:42:18.744335+00:00", "meta": {"OBJECT_NAME": "FENGYUN 1C DEB", "OBJECT_ID": "1999-025CEK", "EPOCH": "2025-12-12T06:34:27.961536", "MEAN_MOTION": 14.14183132, "ECCENTRICITY": 0.00110525, "INCLINATION": 98.6783, "RA_OF_ASC_NODE": 348.1999, "ARG_OF_PERICENTER": 242.1513, "MEAN_ANOMALY": 117.8541, "EPHEMERIS_TYPE": 0, "CLASSIFICATION_TYPE": "U", "NORAD_CAT_ID": 31736, "ELEMENT_SET_NO": 999, "REV_AT_EPOCH": 64058, "BSTAR": 0.00023918785, "MEAN_MOTION_DOT": 4.13e-06, "MEAN_MOTION_DDOT": 0}, "tle": {"line1": "1 31736U 99025CEK 25346.27393474  .00000413  00000+0  23919-3 0  9998", "line2": "2 31736  98.6783 348.1999 0011052 242.1513 117.8541 14.14183132640581"}}, "geometry": {"type": "Point", "coordinates": [65.80432436701477, -81.04294925729035]}}, {"type": "Feature", "properties": {"norad_id": 31737, "name": "FENGYUN 1C DEB", "group": "fengyun-1c-debris", "lat": 51.357886302384756, "lon": -148.27000774306836, "alt_km": 706.5264339725763, "timestamp": "2025-12-14T05:42:18.744346+00:00", "meta": {"OBJECT_NAME": "FENGYUN 1C DEB", "OBJECT_ID": "1999-025CEL", "EPOCH": "2025-12-11T14:02:52.739232", "MEAN_MOTION": 14.687266, "ECCENTRICITY": 0.01489053, "INCLINATION": 97.9176, "RA_OF_ASC_NODE": 19.1358, "ARG_OF_PERICENTER": 19.4036, "MEAN_ANOMALY": 130.9872, "EPHEMERIS_TYPE": 0, "CLASSIFICATION_TYPE": "U", "NORAD_CAT_ID": 31737, "ELEMENT_SET_NO": 999, "REV_AT_EPOCH": 98182, "BSTAR": 0.00088130791, "MEAN_MOTION_DOT": 6.03e-05, "MEAN_MOTION_DDOT": 0}, "tle": {"line1": "1 31737U 99025CEL 25345.58533263  .00006030  00000+0  88131-3 0  9992", "line2": "2 31737  97.9176  19.1358 0148905  19.4036 130.9872 14.68726600981827"}}, "geometry": {"type": "Point", "coordinates": [-148.27000774306836, 51.357886302384756]}}, {"type": "Feature", "properties": {"norad_id": 31738, "name": "FENGYUN 1C DEB", "group": "fengyun-1c-debris", "lat": 64.31647718848266, "lon": 35.42243888507601, "alt_km": 743.2804674834815, "timestamp": "2025-12-14T05:42:18.744356+00:00", "meta": {"OBJECT_NAME": "FENGYUN 1C DEB", "OBJECT_ID": "1999-025CEM", "EPOCH": "2025-12-11T23:39:03.757824", "MEAN_MOTION": 13.85046302, "ECCENTRICITY": 0.0307554, "INCLINATION": 99.3602, "RA_OF_ASC_NODE": 53.2298, "ARG_OF_PERICENTER": 102.2478, "MEAN_ANOMALY": 261.3293, "EPHEMERIS_TYPE": 0, "CLASSIFICATION_TYPE": "U", "NORAD_CAT_ID": 31738, "ELEMENT_SET_NO": 999, "REV_AT_EPOCH": 62247, "BSTAR": 0.0021693, "MEAN_MOTION_DOT": 3.509e-05, "MEAN_MOTION_DDOT": 0}, "tle": {"line1": "1 31738U 99025CEM 25345.98546016  .00003509  00000+0  21693-2 0  9994", "line2": "2 31738  99.3602  53.2298 0307554 102.2478 261.3293 13.85046302622479"}}, "geometry": {"type": "Point", "coordinates": [35.42243888507601, 64.31647718848266]}}, {"type": "Feature", "properties": {"norad_id": 31739, "name": "FENGYUN 1C DEB", "group": "fengyun-1c-debris", "lat": 8.22517186693605, "lon": -135.17403226522407, "alt_km": 840.9551465040659, "timestamp": "2025-12-14T05:42:18.744366+00:00", "meta": {"OBJECT_NAME": "FENGYUN 1C DEB", "OBJECT_ID": "1999-025CEN", "EPOCH": "2025-12-11T09:13:55.687584", "MEAN_MOTION": 14.19216855, "ECCENTRICITY": 0.01284254, "INCLINATION": 98.7479, "RA_OF_ASC_NODE": 40.7336, "ARG_OF_PERICENTER": 82.0925, "MEAN_ANOMALY": 279.4805, "EPHEMERIS_TYPE": 0, "CLASSIFICATION_TYPE": "U", "NORAD_CAT_ID": 31739, "ELEMENT_SET_NO": 999, "REV_AT_EPOCH": 95467, "BSTAR": 0.00014649864, "MEAN_MOTION_DOT": 2.91e-06, "MEAN_MOTION_DDOT": 0}, "tle": {"line1": "1 31739U 99025CEN 25345.38467231  .00000291  00000+0  14650-3 0  9991", "line2": "2 31739  98.7479  40.7336 0128425  82.0925 279.4805 14.19216855954678"}}, "geometry": {"type": "Point", "coordinates": [-135.17403226522407, 8.22517186693605]}}, {"type": "Feature", "properties": {"norad_id": 31740, "name": "FENGYUN 1C DEB", "group": "fengyun-1c-debris", "lat": -66.62108791787789, "lon": -43.8230466015243, "alt_km": 775.752299564534, "timestamp": "2025-12-14T05:42:18.744376+00:00", "meta": {"OBJECT_NAME": "FENGYUN 1C DEB", "OBJECT_ID": "1999-025CEP", "EPOCH": "2025-12-12T17:41:43.521792", "MEAN_MOTION": 14.42165009, "ECCENTRICITY": 0.00243157, "INCLINATION": 99.8222, "RA_OF_ASC_NODE": 158.077, "ARG_OF_PERICENTER": 68.5462, "MEAN_ANOMALY": 314.5737, "EPHEMERIS_TYPE": 0, "CLASSIFICATION_TYPE": "U", "NORAD_CAT_ID": 31740, "ELEMENT_SET_NO": 999, "REV_AT_EPOCH": 65075, "BSTAR": 0.0019993932, "MEAN_MOTION_DOT": 6.555e-05, "MEAN_MOTION_DDOT": 0}, "tle": {"line1": "1 31740U 99025CEP 25346.73730928  .00006555  00000+0  19994-2 0  9993", "line2": "2 31740  99.8222 158.0770 0024315  68.5462 314.5737 14.42165009650758"}}, "geometry": {"type": "Point", "coordinates": [-43.8230466015243, -66.62108791787789]}}, {"type": "Feature", "properties": {"norad_id": 31742, "name": "FENGYUN 1C DEB", "group": "fengyun-1c-debris", "lat": -21.40992247104454, "lon": -148.36258170819596, "alt_km": 711.1999506069478, "timestamp": "2025-12-14T05:42:18.744387+00:00", "meta": {"OBJECT_NAME": "FENGYUN 1C DEB", "OBJECT_ID": "1999-025CER", "EPOCH": "2025-12-12T02:06:04.814208", "MEAN_MOTION": 14.3979189, "ECCENTRICITY": 0.00765581, "INCLINATION": 98.9194, "RA_OF_ASC_NODE": 205.8694, "ARG_OF_PERICENTER": 331.4333, "MEAN_ANOMALY": 28.2668, "EPHEMERIS_TYPE": 0, "CLASSIFICATION_TYPE": "U", "NORAD_CAT_ID": 31742, "ELEMENT_SET_NO": 999, "REV_AT_EPOCH": 96640, "BSTAR": 0.0011200534, "MEAN_MOTION_DOT": 3.588e-05, "MEAN_MOTION_DDOT": 0}, "tle": {"line1": "1 31742U 99025CER 25346.08755572  .00003588  00000+0  11201-2 0  9991", "line2": "2 31742  98.9194 205.8694 0076558 331.4333  28.2668 14.39791890966402"}}, "geometry": {"type": "Point", "coordinates": [-148.36258170819596, -21.40992247104454]}}, {"type": "Feature", "properties": {"norad_id": 31743, "name": "FENGYUN 1C DEB", "group": "fengyun-1c-debris", "lat": 15.023988310012939, "lon": -86.24327045891374, "alt_km": 813.351565447354, "timestamp": "2025-12-14T05:42:18.744397+00:00", "meta": {"OBJECT_NAME": "FENGYUN 1C DEB", "OBJECT_ID": "1999-025CES", "EPOCH": "2025-12-13T06:51:50.109696", "MEAN_MOTION": 14.31305907, "ECCENTRICITY": 0.00373412, "INCLINATION": 99.1413, "RA_OF_ASC_NODE": 275.2327, "ARG_OF_PERICENTER": 217.3028, "MEAN_ANOMALY": 296.6917, "EPHEMERIS_TYPE": 0, "CLASSIFICATION_TYPE": "U", "NORAD_CAT_ID": 31743, "ELEMENT_SET_NO": 999, "REV_AT_EPOCH": 95648, "BSTAR": 0.0026530852, "MEAN_MOTION_DOT": 7.034e-05, "MEAN_MOTION_DDOT": 0}, "tle": {"line1": "1 31743U 99025CES 25347.28599664  .00007034  00000+0  26531-2 0  9995", "line2": "2 31743  99.1413 275.2327 0037341 217.3028 296.6917 14.31305907956481"}}, "geometry": {"type": "Point", "coordinates": [-86.24327045891374, 15.023988310012939]}}, {"type": "Feature", "properties": {"norad_id": 31744, "name": "FENGYUN 1C DEB", "group": "fengyun-1c-debris", "lat": -66.55082795744508, "lon": -102.92784450502123, "alt_km": 1043.041281548597, "timestamp": "2025-12-14T05:42:18.744407+00:00", "meta": {"OBJECT_NAME": "FENGYUN 1C DEB", "OBJECT_ID": "1999-025CET", "EPOCH": "2025-12-13T06:30:09.241920", "MEAN_MOTION": 14.1657548, "ECCENTRICITY": 0.03153537, "INCLINATION": 99.3037, "RA_OF_ASC_NODE": 98.2652, "ARG_OF_PERICENTER": 42.8847, "MEAN_ANOMALY": 319.6459, "EPHEMERIS_TYPE": 0, "CLASSIFICATION_TYPE": "U", "NORAD_CAT_ID": 31744, "ELEMENT_SET_NO": 999, "REV_AT_EPOCH": 94622, "BSTAR": 0.0025320906, "MEAN_MOTION_DOT": 8.177e-05, "MEAN_MOTION_DDOT": 0}, "tle": {"line1": "1 31744U 99025CET 25347.27094030  .00008177  00000+0  25321-2 0  9997", "line2": "2 31744  99.3037  98.2652 0315353  42.8847 319.6459 14.16575480946228"}}, "geometry": {"type": "Point", "coordinates": [-102.92784450502123, -66.55082795744508]}}]}